
TAF CYOW 311740Z 3118/0118 17006KT P6SM BKN130 OVC170
     FM312100 17006KT P6SM OVC090
     FM010000 17005KT P6SM OVC050 TEMPO 0100/0102 P6SM -SHRA BKN012 OVC030
     FM010200 VRB03KT P6SM -SHRA SCT008 OVC015 TEMPO 0102/0106 2SM -SHRA BR BKN005 OVC010
     FM010600 VRB03KT 6SM -SHRA BR OVC006 TEMPO 0106/0115 2SM -DZ BR BKN003 OVC005 PROB30 0106/0113 3/4SM -DZ BR
     FM011500 27005KT P6SM OVC006 FM011700 28010KT P6SM OVC012 RMK NXT FCST BY 312100Z

<link rel="stylesheet" href="/api/api.css"><span
        class="metar_taf">TAF CYOW 312040Z 3121/0118 17006KT P6SM OVC090 <br/><span class='taf_period'>FM010000  17005KT P6SM OVC050 TEMPO 0100/0102 P6SM -SHRA BKN012 OVC030 </span><br/><span
        class='taf_period'>FM010200 VRB03KT P6SM -SHRA SCT008 OVC015 TEMPO 0102/0106 2SM -SHRA BR BKN005 OVC010 </span><br/><span
        class='taf_period'>FM010600 VRB03KT 6SM -SHRA BR OVC006 TEMPO 0106/0115 2SM -DZ BR BKN003 OVC005 PROB30 0106/0113 3/4SM -DZ BR </span><br/><span
        class='taf_period'>FM011500 27005KT P6SM OVC006 </span><br/><span class='taf_period'>FM011700 28010KT P6SM OVC012 </span><br/><span
        class='taf_period'>RMK NXT FCST BY 010000Z </span></span>
